[{"OBJECT_NAME":"TISAT 1","OBJECT_ID":"2010-035E","EPOCH":"2026-03-09T18:10:07.877568","MEAN_MOTION":15.27628633,"ECCENTRICITY":0.00013432,"INCLINATION":98.0645,"RA_OF_ASC_NODE":6.8512,"ARG_OF_PERICENTER":159.303,"MEAN_ANOMALY":200.8262,"EPHEMERIS_TYPE":0,"CLASSIFICATION_TYPE":"U","NORAD_CAT_ID":36799,"ELEMENT_SET_NO":999,"REV_AT_EPOCH":85250,"BSTAR":0.00091004793,"MEAN_MOTION_DOT":0.00024554,"MEAN_MOTION_DDOT":0},{"OBJECT_NAME":"STARLINK-31888","OBJECT_ID":"2024-093G","EPOCH":"2026-03-09T11:06:43.350336","MEAN_MOTION":15.27559291,"ECCENTRICITY":0.00012047,"INCLINATION":43.0024,"RA_OF_ASC_NODE":209.929,"ARG_OF_PERICENTER":265.3673,"MEAN_ANOMALY":94.7041,"EPHEMERIS_TYPE":0,"CLASSIFICATION_TYPE":"U","NORAD_CAT_ID":59788,"ELEMENT_SET_NO":999,"REV_AT_EPOCH":10266,"BSTAR":-0.00011368532,"MEAN_MOTION_DOT":-3.387e-5,"MEAN_MOTION_DDOT":0}]
