TISAT 1                 
1 36799U 10035E   26068.75703561  .00024554  00000+0  91005-3 0  9996
2 36799  98.0645   6.8512 0001343 159.3030 200.8262 15.27628633852505
STARLINK-31888          
1 59788U 24093G   26068.46300174 -.00003387  00000+0 -11369-3 0  9997
2 59788  43.0024 209.9290 0001204 265.3673  94.7041 15.27559291102668
